NORAD_CAT_ID,OBJECT_NAME,OBJECT_TYPE,EPOCH,MEAN_MOTION,ECCENTRICITY,INCLINATION,RA_OF_ASC_NODE,ARG_OF_PERICENTER,MEAN_ANOMALY,BSTAR,MEAN_MOTION_DOT,MEAN_MOTION_DDOT,TLE_LINE0,TLE_LINE1,TLE_LINE2,SEMIMAJOR_AXIS,PERIOD,APOGEE,PERIGEE,DECAYED
52375.0,STARLINK-3785,PAYLOAD,2022-08-08 14:00:01,15.15390208,0.0001506999999999,53.2175,306.0158,58.8585,229.1982,-0.040573,-0.00721889,0.0,0 STARLINK-3785,1 52375U 22045AW  22220.58335648 -.00721889  00000-0 -40573-1 0  9992,2 52375  53.2175 306.0158 0001507  58.8585 229.1982 15.15390208  1303,6897.931,95.025,520.836,518.757,0.0
52375.0,STARLINK-3785,PAYLOAD,2022-08-08 22:00:00,15.148821,0.0001356,53.2174,304.504,66.0694,241.0804,-0.041411,-0.00725904,0.0,0 STARLINK-3785,1 52375U 22045AW  22220.91667824 -.00725904  00000-0 -41411-1 0  9997,2 52375  53.2174 304.5040 0001356  66.0694 241.0804 15.14882100  1301,6899.474,95.057,522.274,520.403,0.0
52375.0,STARLINK-3785,PAYLOAD,2022-08-09 06:00:00,15.14369395,0.0001412,53.2177,302.9938,60.4284,265.2654,-0.041645,-0.00719893,0.0,0 STARLINK-3785,1 52375U 22045AW  22221.25001157 -.00719893  00000-0 -41645-1 0  9995,2 52375  53.2177 302.9938 0001412  60.4284 265.2654 15.14369395 18381,6901.031,95.089,523.87,521.9209999999998,0.0
52375.0,STARLINK-3785,PAYLOAD,2022-08-09 14:00:01,15.13860947,0.0001452,53.2176,301.4873,57.74,285.8826,-0.042444,-0.00722995,0.0,0 STARLINK-3785,1 52375U 22045AW  22221.58334491 -.00722995  00000-0 -42444-1 0  9996,2 52375  53.2176 301.4873 0001452  57.7400 285.8826 15.13860947  1306,6902.576,95.121,525.443,523.439,0.0
52375.0,STARLINK-3785,PAYLOAD,2022-08-09 22:00:00,15.13351705,0.0001325,53.2175,299.9788,64.5675,296.3735,-0.043199,-0.00725175,0.0,0 STARLINK-3785,1 52375U 22045AW  22221.91667824 -.00725175  00000-0 -43199-1 0  9993,2 52375  53.2175 299.9788 0001325  64.5675 296.3735 15.13351705  1314,6904.124,95.153,526.904,525.0740000000002,0.0
52375.0,STARLINK-3785,PAYLOAD,2022-08-10 06:00:00,15.12839415,0.0001356,53.2177,298.4725,63.7259,313.9204,-0.04349,-0.00719982,0.0,0 STARLINK-3785,1 52375U 22045AW  22222.25001157 -.00719982  00000-0 -43490-1 0  9995,2 52375  53.2177 298.4725 0001356  63.7259 313.9204 15.12839415 18542,6905.683000000001,95.185,528.484,526.611,0.0
52375.0,STARLINK-3785,PAYLOAD,2022-08-10 14:00:01,15.12331093,0.0001464,53.2176,296.9694,56.6021,337.1347,-0.044337,-0.00723365,0.0,0 STARLINK-3785,1 52375U 22045AW  22222.58334491 -.00723365  00000-0 -44337-1 0  9992,2 52375  53.2176 296.9694 0001464  56.6021 337.1347 15.12331093  1308,6907.23,95.217,530.106,528.0840000000002,0.0
52375.0,STARLINK-3785,PAYLOAD,2022-08-10 22:00:00,15.118210500000002,0.0001373,53.2176,295.4643,61.3666,347.8506,-0.045008,-0.00723852,0.0,0 STARLINK-3785,1 52375U 22045AW  22222.91667824 -.00723852  00000-0 -45008-1 0  9995,2 52375  53.2176 295.4643 0001373  61.3666 347.8506 15.11821050  1304,6908.783,95.249,531.597,529.7,0.0
52375.0,STARLINK-3785,PAYLOAD,2022-08-11 06:00:02,15.11309583,0.0001383,53.2177,293.9617,64.9737,359.1731,-0.045423,-0.00720416,0.0,0 STARLINK-3785,1 52375U 22045AW  22223.25002315 -.00720416  00000-0 -45423-1 0  9995,2 52375  53.2177 293.9617 0001383  64.9737 359.1731 15.11309583 18696,6910.342,95.282,533.163,531.251,0.0
52375.0,STARLINK-3785,PAYLOAD,2022-08-11 14:00:01,15.1080033,0.0001543,53.2177,292.4622,54.3434,23.993,-0.046192,-0.00722183,0.0,0 STARLINK-3785,1 52375U 22045AW  22223.58334491 -.00722183  00000-0 -46192-1 0  9991,2 52375  53.2177 292.4622 0001543  54.3434  23.9930 15.10800330  1303,6911.895,95.314,534.826,532.693,0.0
52375.0,STARLINK-3785,PAYLOAD,2022-08-12 06:00:00,15.09781492,0.0001508,53.2177,289.4616,57.0895,47.9164,-0.047729,-0.00725193,0.0,0 STARLINK-3785,1 52375U 22045AW  22224.25001157 -.00725193  00000-0 -47729-1 0  9997,2 52375  53.2177 289.4616 0001508  57.0895  47.9164 15.09781492 18841,6915.004,95.378,537.9119999999998,535.826,0.0
52375.0,STARLINK-3785,PAYLOAD,2022-08-12 14:00:01,15.09192892,0.0001338,53.2176,287.9655,62.7811,54.6477,-0.024727,-0.00377323,0.0,0 STARLINK-3785,1 52375U 22045AW  22224.58334491 -.00377323  00000-0 -24727-1 0  9994,2 52375  53.2176 287.9655 0001338  62.7811  54.6477 15.09192892  1303,6916.802,95.415,539.592,537.741,0.0
52375.0,STARLINK-3785,PAYLOAD,2022-08-12 20:00:01,15.08918325,0.0001296999999999,53.2174,286.8415,64.2744,332.1576,-0.0082732,-0.00129868,0.0,0 STARLINK-3785,1 52375U 22045AW  22224.83335648 -.00129868  00000-0 -82732-2 0  9997,2 52375  53.2174 286.8415 0001297  64.2744 332.1576 15.08918325 18936,6917.641,95.433,540.403,538.609,0.0
52375.0,STARLINK-3785,PAYLOAD,2022-08-12 22:00:01,15.08837386,0.0001361,53.2176,286.467,64.3024,65.0673,-0.00016586,-2.926e-05,0.0,0 STARLINK-3785,1 52375U 22045AW  22224.91668981 -.00002926  00000-0 -16586-3 0  9995,2 52375  53.2176 286.4670 0001361  64.3024  65.0673 15.08837386  1301,6917.888000000001,95.438,540.695,538.812,0.0
52375.0,STARLINK-3785,PAYLOAD,2022-08-13 06:00:02,15.08960528,0.0001561999999999,53.2166,284.9677,63.4476,77.3798,-0.004841,-0.00076765,0.0,0 STARLINK-3785,1 52375U 22045AW  22225.25002315 -.00076765  00000-0 -48410-2 0  9998,2 52375  53.2166 284.9677 0001562  63.4476  77.3798 15.08960528 18996,6917.512,95.43,540.4580000000002,538.2959999999998,0.0
52375.0,STARLINK-3785,PAYLOAD,2022-08-13 14:00:01,15.08822298,0.0001763,53.2146,283.4685,60.3843,92.0227,0.0029530999999999,0.00047002,0.0,0 STARLINK-3785,1 52375U 22045AW  22225.58334491  .00047002  00000-0  29531-2 0  9990,2 52375  53.2146 283.4685 0001763  60.3843  92.0227 15.08822298  1303,6917.934,95.439,541.019,538.58,0.0
52375.0,STARLINK-3785,PAYLOAD,2022-08-13 22:00:00,15.08847265,0.0001655,53.2145,281.9704,65.0268,98.9781,0.0002691,3.998e-05,0.0,0 STARLINK-3785,1 52375U 22045AW  22225.91667824  .00003998  00000-0  26910-3 0  9991,2 52375  53.2145 281.9704 0001655  65.0268  98.9781 15.08847265  1301,6917.858,95.437,540.868,538.578,0.0
52375.0,STARLINK-3785,PAYLOAD,2022-08-14 06:00:02,15.08869273,0.0001737,53.2146,280.4739,67.2251,108.4433,-0.000916,-0.00014848,0.0,0 STARLINK-3785,1 52375U 22045AW  22226.25002315 -.00014848  00000-0 -91600-3 0  9993,2 52375  53.2146 280.4739 0001737  67.2251 108.4433 15.08869273 19146,6917.791,95.436,540.8580000000002,538.4540000000002,0.0
52375.0,STARLINK-3785,PAYLOAD,2022-08-14 14:00:01,15.08846994,0.000179,53.2146,278.9788,58.6702,128.5629,0.0010807,0.00016957,0.0,0 STARLINK-3785,1 52375U 22045AW  22226.58334491  .00016957  00000-0  10807-2 0  9992,2 52375  53.2146 278.9788 0001790  58.6702 128.5629 15.08846994  1300,6917.859,95.437,540.962,538.486,0.0
52375.0,STARLINK-3785,PAYLOAD,2022-08-14 22:00:00,15.08837244,0.0001599,53.2147,277.4805,62.153,136.6992,0.00028155,4.195e-05,0.0,0 STARLINK-3785,1 52375U 22045AW  22226.91667824  .00004195  00000-0  28155-3 0  9995,2 52375  53.2147 277.4805 0001599  62.1530 136.6992 15.08837244  1302,6917.889,95.438,540.86,538.648,0.0
52375.0,STARLINK-3785,PAYLOAD,2022-08-15 14:00:01,15.08829197,0.0001746,53.2148,274.48900000000003,56.0432,166.0057,0.0018111,0.00028645,0.0,0 STARLINK-3785,1 52375U 22045AW  22227.58334491  .00028645  00000-0  18111-2 0  9996,2 52375  53.2148 274.4890 0001746  56.0432 166.0057 15.08829197  1308,6917.913000000001,95.438,540.986,538.571,0.0
52375.0,STARLINK-3785,PAYLOAD,2022-08-15 16:00:00,15.08858432,0.000169,53.2146,274.1146,55.4346,259.505,-0.0021366999999999,-0.0003415,0.0,0 STARLINK-3785,1 52375U 22045AW  22227.66667824 -.00034150  00000-0 -21367-2 0  9991,2 52375  53.2146 274.1146 0001690  55.4346 259.5050 15.08858432 19351,6917.824000000001,95.436,540.8580000000002,538.52,0.0
52375.0,STARLINK-3785,PAYLOAD,2022-08-15 22:00:00,15.08822087,0.0001554,53.2151,272.9907,60.2114,173.4443,0.00020725,3.01e-05,0.0,0 STARLINK-3785,1 52375U 22045AW  22227.91667824  .00003010  00000-0  20725-3 0  9996,2 52375  53.2151 272.9907 0001554  60.2114 173.4443 15.08822087  1307,6917.935,95.439,540.875,538.725,0.0
52375.0,STARLINK-3785,PAYLOAD,2022-08-16 14:00:01,15.08809442,0.0001691,53.2151,269.9994,53.8625,202.9564,0.0027613,0.00043895,0.0,0 STARLINK-3785,1 52375U 22045AW  22228.58334491  .00043895  00000-0  27613-2 0  9998,2 52375  53.2151 269.9994 0001691  53.8625 202.9564 15.08809442 19497,6917.974,95.439,541.009,538.669,0.0
52375.0,STARLINK-3785,PAYLOAD,2022-08-16 22:00:00,15.08819604,0.0001539,53.2154,268.5011,60.331,208.0757,0.0017284,0.00027311,0.0,0 STARLINK-3785,1 52375U 22045AW  22228.91667824  .00027311  00000-0  17284-2 0  9992,2 52375  53.2154 268.5011 0001539  60.3310 208.0757 15.08819604  1303,6917.943,95.439,540.872,538.743,0.0
52375.0,STARLINK-3785,PAYLOAD,2022-08-17 06:00:02,15.08854684,0.0001593,53.2155,267.0053,60.7308,219.3176,-0.0014936,-0.0002399,0.0,0 STARLINK-3785,1 52375U 22045AW  22229.25002315 -.00023990  00000-0 -14936-2 0  9990,2 52375  53.2155 267.0053 0001593  60.7308 219.3176 15.08854684 19592,6917.8359999999975,95.437,540.803,538.5980000000002,0.0
52375.0,STARLINK-3785,PAYLOAD,2022-08-17 16:00:00,15.08849806,0.0001652,53.215,265.1353,54.3359,330.1441,-0.00069747,-0.00011374,0.0,0 STARLINK-3785,1 52375U 22045AW  22229.66667824 -.00011374  00000-0 -69747-3 0  9991,2 52375  53.2150 265.1353 0001652  54.3359 330.1441 15.08849806  1307,6917.85,95.437,540.8580000000002,538.573,0.0
52375.0,STARLINK-3785,PAYLOAD,2022-08-18 08:00:01,15.08860643,0.0001636999999999,53.2152,262.1425,58.2357,349.4526,-0.0014165999999999,-0.00022775,0.0,0 STARLINK-3785,1 52375U 22045AW  22230.33334491 -.00022775  00000-0 -14166-2 0  9999,2 52375  53.2152 262.1425 0001637  58.2357 349.4526 15.08860643 19768,6917.816999999999,95.436,540.815,538.55,0.0
52375.0,STARLINK-3785,PAYLOAD,2022-08-18 14:00:01,15.08852506,0.0001610999999999,53.2149,261.0205,53.632,272.7648,-0.00064194,-0.00010494,0.0,0 STARLINK-3785,1 52375U 22045AW  22230.58334491 -.00010494  00000-0 -64194-3 0  9998,2 52375  53.2149 261.0205 0001611  53.6320 272.7648 15.08852506  1302,6917.842,95.437,540.822,538.5930000000002,0.0
